STARLINK-37461          
1 69173U 26111AB  26155.16670139  .00052211  00000+0  26670-3 0  9993
2 69173  53.1621 216.7232 0001116  83.7102 269.4090 15.80853643  3454
STARLINK-37333          
1 69174U 26111AC  26155.16670139 -.02202675  00000+0 -12581-1 0  9993
2 69174  53.1596 216.7118 0000847 102.1903 256.2977 15.81169777  3451
STARLINK-37385          
1 69175U 26111AD  26155.16670139  .00137135  00000+0  68879-3 0  9991
2 69175  53.1590 216.7104 0001128  96.0698 263.2816 15.80827572  3459
STARLINK-37414          
1 69176U 26111AE  26155.16670139  .00164626  00000+0  82353-3 0  9990
2 69176  53.1596 216.6946 0000997  52.3530 314.7039 15.80827338  3451
STRIX-7                 
1 69177U 26112A   26155.13132316  .00004682  00000+0  37330-3 0  9999
2 69177  44.9072 261.0178 0024493 333.9974  25.9665 15.01355707  1911
SHENZHOU-23 (SZ-23)     
1 69180U 26113A   26154.92149794  .00024659  00000+0  29647-3 0  9996
2 69180  41.4695  42.7005 0009798 337.2037  22.8366 15.60222099291253
STARLINK-37380          
1 69182U 26114A   26155.16670139 -.01853384  00000+0 -95637-2 0  9997
2 69182  53.1586 267.5152 0000746  76.6863 235.6358 15.83284447  2715
STARLINK-37089          
1 69183U 26114B   26155.16670139 -.01885296  00000+0 -96161-2 0  9998
2 69183  53.1585 267.5065 0000706  68.9008 247.5689 15.83578733  2712
STARLINK-37428          
1 69184U 26114C   26155.16670139 -.01905982  00000+0 -94062-2 0  9992
2 69184  53.1584 267.4977 0000708  67.8617 252.9706 15.84296300  2717
STARLINK-37237          
1 69185U 26114D   26155.16670139 -.00542590  00000+0 -23973-2 0  9997
2 69185  53.1580 267.4888 0000868  58.3361 266.5799 15.85048979  2714
STARLINK-37365          
1 69186U 26114E   26155.16670139 -.01877925  00000+0 -87741-2 0  9995
2 69186  53.1579 267.4808 0000707  61.0869 267.7053 15.85376478  2715
STARLINK-37209          
1 69187U 26114F   26155.16670139 -.01793234  00000+0 -86445-2 0  9996
2 69187  53.1580 267.4711 0000720  67.8829 265.6156 15.85112597  2717
STARLINK-37359          
1 69188U 26114G   26155.16670139 -.01877361  00000+0 -89306-2 0  9990
2 69188  53.1581 267.4632 0000660  63.6482 273.6502 15.85007918  2717
STARLINK-37440          
1 69189U 26114H   26155.16670139 -.01423470  58146-3 -42032-2 0  9992
2 69189  53.1567 267.2357 0000937  75.0866  11.6777 15.91993449  2718
STARLINK-37282          
1 69190U 26114J   26155.16670139 -.01686617  00000+0 -81872-2 0  9995
2 69190  53.1583 267.4430 0000721  73.6547 273.2961 15.84763116  2712
STARLINK-37422          
1 69191U 26114K   26155.16670139 -.01758014  00000+0 -77117-2 0  9994
2 69191  53.1575 267.4434 0000759  72.2224 274.7384 15.86954621  2716
STARLINK-37424          
1 69192U 26114L   26155.16670139 -.01684333  00000+0 -81165-2 0  9995
2 69192  53.1580 267.4356 0000880  67.6873 282.9838 15.84907088  2717
STARLINK-36666          
1 69193U 26114M   26155.16670139 -.01684421  00000+0 -80595-2 0  9990
2 69193  53.1580 267.4278 0000739  69.2494 285.1210 15.85054606  2710
STARLINK-37355          
1 69194U 26114N   26155.16670139 -.01684795  00000+0 -80027-2 0  9995
2 69194  53.1581 267.4204 0000804  81.9776 276.0653 15.85203689  2715
STARLINK-37166          
1 69195U 26114P   26155.16670139 -.01694477  00000+0 -79555-2 0  9998
2 69195  53.1579 267.4046 0000734  75.5480 289.9944 15.85460858  2719
STARLINK-36933          
1 69196U 26114Q   26155.16670139 -.01692871  00000+0 -79981-2 0  9998
2 69196  53.1577 267.4127 0000690  70.8894 290.9247 15.85330052  2716
STARLINK-37419          
1 69197U 26114R   26155.16670139 -.01701035  00000+0 -79405-2 0  9993
2 69197  53.1579 267.3969 0000800  78.7606 290.5177 15.85589745  2716
STARLINK-37321          
1 69198U 26114S   26155.16670139 -.01701113  00000+0 -78817-2 0  9997
2 69198  53.1576 267.3898 0000734  73.3551 299.4963 15.85742837  2715
STARLINK-37406          
1 69199U 26114T   26155.16670139 -.01700696  00000+0 -78292-2 0  9990
2 69199  53.1575 267.3824 0000741  73.0626 303.4620 15.85872745  2710
STARLINK-37761          
1 69200U 26114U   26155.16670139 -.01706229  00000+0 -78030-2 0  9991
2 69200  53.1576 267.3747 0000680  74.5955 305.5173 15.86017693  2711
STARLINK-37754          
1 69201U 26114V   26155.16670139 -.01780826  00000+0 -81275-2 0  9992
2 69201  53.1578 267.3642 0000666  71.1898 314.1173 15.86201565  2710
STARLINK-37649          
1 69202U 26114W   26155.16670139 -.01715401  00000+0 -77555-2 0  9996
2 69202  53.1575 267.3599 0000824  68.7519 318.7482 15.86265275  2718
