OBJECT_NAME,OBJECT_ID,EPOCH,MEAN_MOTION,ECCENTRICITY,INCLINATION,RA_OF_ASC_NODE,ARG_OF_PERICENTER,MEAN_ANOMALY,EPHEMERIS_TYPE,CLASSIFICATION_TYPE,NORAD_CAT_ID,ELEMENT_SET_NO,REV_AT_EPOCH,BSTAR,MEAN_MOTION_DOT,MEAN_MOTION_DDOT
STARLINK-37461,2026-111AB,2026-06-04T04:00:03.000096,15.80853643,.0001116,53.1621,216.7232,83.7102,269.4090,0,U,69173,999,345,.2667E-3,.52211E-3,0
STARLINK-37333,2026-111AC,2026-06-04T04:00:03.000096,15.81169777,.0000847,53.1596,216.7118,102.1903,256.2977,0,U,69174,999,345,-.12581E-1,-.2202675E-1,0
STARLINK-37385,2026-111AD,2026-06-04T04:00:03.000096,15.80827572,.0001128,53.1590,216.7104,96.0698,263.2816,0,U,69175,999,345,.68879E-3,.137135E-2,0
STARLINK-37414,2026-111AE,2026-06-04T04:00:03.000096,15.80827338,.0000997,53.1596,216.6946,52.3530,314.7039,0,U,69176,999,345,.82353E-3,.164626E-2,0
STRIX-7,2026-112A,2026-06-04T03:09:06.321024,15.01355707,.0024493,44.9072,261.0178,333.9974,25.9665,0,U,69177,999,191,.3733E-3,.4682E-4,0
SHENZHOU-23 (SZ-23),2026-113A,2026-06-03T22:06:57.422016,15.60222099,.00097988,41.4695,42.7005,337.2037,22.8366,0,U,69180,999,29125,.29646921E-3,.24659E-3,0
STARLINK-37380,2026-114A,2026-06-04T04:00:03.000096,15.83284447,.0000746,53.1586,267.5152,76.6863,235.6358,0,U,69182,999,271,-.95637E-2,-.1853384E-1,0
STARLINK-37089,2026-114B,2026-06-04T04:00:03.000096,15.83578733,.0000706,53.1585,267.5065,68.9008,247.5689,0,U,69183,999,271,-.96161E-2,-.1885296E-1,0
STARLINK-37428,2026-114C,2026-06-04T04:00:03.000096,15.84296300,.0000708,53.1584,267.4977,67.8617,252.9706,0,U,69184,999,271,-.94062E-2,-.1905982E-1,0
STARLINK-37237,2026-114D,2026-06-04T04:00:03.000096,15.85048979,.0000868,53.1580,267.4888,58.3361,266.5799,0,U,69185,999,271,-.23973E-2,-.54259E-2,0
STARLINK-37365,2026-114E,2026-06-04T04:00:03.000096,15.85376478,.0000707,53.1579,267.4808,61.0869,267.7053,0,U,69186,999,271,-.87741E-2,-.1877925E-1,0
STARLINK-37209,2026-114F,2026-06-04T04:00:03.000096,15.85112597,.000072,53.1580,267.4711,67.8829,265.6156,0,U,69187,999,271,-.86445E-2,-.1793234E-1,0
STARLINK-37359,2026-114G,2026-06-04T04:00:03.000096,15.85007918,.000066,53.1581,267.4632,63.6482,273.6502,0,U,69188,999,271,-.89306E-2,-.1877361E-1,0
STARLINK-37440,2026-114H,2026-06-04T04:00:03.000096,15.91993449,.0000937,53.1567,267.2357,75.0866,11.6777,0,U,69189,999,271,-.42032E-2,-.142347E-1,.58146E-3
STARLINK-37282,2026-114J,2026-06-04T04:00:03.000096,15.84763116,.0000721,53.1583,267.4430,73.6547,273.2961,0,U,69190,999,271,-.81872E-2,-.1686617E-1,0
STARLINK-37422,2026-114K,2026-06-04T04:00:03.000096,15.86954621,.0000759,53.1575,267.4434,72.2224,274.7384,0,U,69191,999,271,-.77117E-2,-.1758014E-1,0
STARLINK-37424,2026-114L,2026-06-04T04:00:03.000096,15.84907088,.000088,53.1580,267.4356,67.6873,282.9838,0,U,69192,999,271,-.81165E-2,-.1684333E-1,0
STARLINK-36666,2026-114M,2026-06-04T04:00:03.000096,15.85054606,.0000739,53.1580,267.4278,69.2494,285.1210,0,U,69193,999,271,-.80595E-2,-.1684421E-1,0
STARLINK-37355,2026-114N,2026-06-04T04:00:03.000096,15.85203689,.0000804,53.1581,267.4204,81.9776,276.0653,0,U,69194,999,271,-.80027E-2,-.1684795E-1,0
STARLINK-37166,2026-114P,2026-06-04T04:00:03.000096,15.85460858,.0000734,53.1579,267.4046,75.5480,289.9944,0,U,69195,999,271,-.79555E-2,-.1694477E-1,0
STARLINK-36933,2026-114Q,2026-06-04T04:00:03.000096,15.85330052,.000069,53.1577,267.4127,70.8894,290.9247,0,U,69196,999,271,-.79981E-2,-.1692871E-1,0
STARLINK-37419,2026-114R,2026-06-04T04:00:03.000096,15.85589745,.00008,53.1579,267.3969,78.7606,290.5177,0,U,69197,999,271,-.79405E-2,-.1701035E-1,0
STARLINK-37321,2026-114S,2026-06-04T04:00:03.000096,15.85742837,.0000734,53.1576,267.3898,73.3551,299.4963,0,U,69198,999,271,-.78817E-2,-.1701113E-1,0
STARLINK-37406,2026-114T,2026-06-04T04:00:03.000096,15.85872745,.0000741,53.1575,267.3824,73.0626,303.4620,0,U,69199,999,271,-.78292E-2,-.1700696E-1,0
STARLINK-37761,2026-114U,2026-06-04T04:00:03.000096,15.86017693,.000068,53.1576,267.3747,74.5955,305.5173,0,U,69200,999,271,-.7803E-2,-.1706229E-1,0
STARLINK-37754,2026-114V,2026-06-04T04:00:03.000096,15.86201565,.0000666,53.1578,267.3642,71.1898,314.1173,0,U,69201,999,271,-.81275E-2,-.1780826E-1,0
STARLINK-37649,2026-114W,2026-06-04T04:00:03.000096,15.86265275,.0000824,53.1575,267.3599,68.7519,318.7482,0,U,69202,999,271,-.77555E-2,-.1715401E-1,0
